ELYSIUM STAR 2 & LFF    
1 43760U 18099C   24259.46199593  .00127846  00000+0  31698-2 0  9991
2 43760  97.5056 328.2471 0004786 286.0914  73.9804 15.39872601317055
